ZHUHAI-1 02 (CAS-4B)    
1 42759U 17034B   23124.81776470  .00009734  00000+0  49882-3 0  9990
2 42759  43.0191 356.6484 0010511 190.0402 263.9426 15.16669696325059
ZHUHAI-1 01 (CAS-4A)    
1 42761U 17034D   23124.83525280  .00008320  00000+0  42754-3 0  9997
2 42761  43.0178 355.0889 0011049 191.3431 267.5721 15.16717762325069
MAX VALIER SAT          
1 42778U 17036P   23124.83193384  .00022033  00000+0  61203-3 0  9990
2 42778  97.1604 160.7477 0006503 245.7607 114.2959 15.36871717326068
RADFXSAT (FOX-1B)       
1 43017U 17073E   23124.61315496  .00005088  00000+0  36228-3 0  9994
2 43017  97.6366  10.6817 0234358 212.7872 145.8619 14.85516198294716
FOX-1D (AO-92)          
1 43137U 18004AC  23124.27524751  .00031861  00000+0  72058-3 0  9999
2 43137  97.3306 203.0854 0004388 291.1468  68.9311 15.43087774295532
DIWATA-2B               
1 43678U 18084H   23124.97090745  .00002255  00000+0  22101-3 0  9994
2 43678  98.0148 268.0894 0008410 309.9099  50.1360 14.93283524245815
ES'HAIL 2               
1 43700U 18090A   23124.56716053  .00000159  00000+0  00000+0 0  9990
2 43700   0.0128 271.7974 0001617 163.5431  16.8681  1.00275078 16245
FOX-1CLIFF (AO-95)      
1 43770U 18099N   23124.85450235  .00005843  00000+0  48138-3 0  9998
2 43770  97.5757 187.5597 0010161 273.3174  86.6887 14.99395658241112
ITASAT 1                
1 43786U 18099AE  23124.71454178  .00004513  00000+0  37541-3 0  9999
2 43786  97.5773 188.4601 0012250 263.6902  96.2926 14.99124138241131
JY1SAT (JO-97)          
1 43803U 18099AX  23124.90537462  .00005698  00000+0  45827-3 0  9999
2 43803  97.5708 188.6024 0011654 248.4410 111.5572 15.00323143241208
UWE-4                   
1 43880U 18111E   23124.71969939  .00005857  00000+0  45396-3 0  9994
2 43880  97.6410  30.5937 0015107 328.0609  31.9699 15.01696072237849
NEXUS (FO-99)           
1 43937U 19003F   23124.86567412  .00052137  00000+0  97605-3 0  9997
2 43937  97.0909 152.7339 0015798  81.5354 278.7687 15.48394884239337
JAISAT-1                
1 44419U 19038F   23124.91106044  .00024637  00000+0  89193-3 0  9994
2 44419  97.6722 105.2626 0018167  94.5507 265.7807 15.28239661211925
DUCHIFAT-3              
1 44854U 19089C   23124.93240044  .00008047  00000+0  55199-3 0  9990
2 44854  36.9646 349.6665 0010715 322.7842 157.4175 15.05567996186314
CAS-6 (TIANQIN 1)       
1 44881U 19093C   23124.89718175  .00001158  00000+0  15088-3 0  9994
2 44881  97.8615 204.0853 0013867 214.9327 145.0952 14.82433774182389
RS-44 & BREEZE-KM R/B   
1 44909U 19096E   23124.75307800  .00000023  00000+0  54055-4 0  9990
2 44909  82.5259  16.8083 0216393 288.6661  69.1059 12.79720296156609
BY70-2                  
1 45857U 20042B   23124.88585290  .00019059  00000+0  20339-2 0  9996
2 45857  97.9256 204.6886 0011080 146.0763 214.1086 14.88824626153099
SALSAT                  
1 46495U 20068K   23124.84457062  .00004697  00000+0  31453-3 0  9996
2 46495  97.7680  72.4107 0013578 267.3082  92.6591 15.07341887142542
RADFXSAT-2 (AO-109)     
1 47311U 21002C   23124.61989059  .00028266  00000+0  77809-3 0  9997
2 47311  60.6819 225.7620 0020668 151.7091 208.5130 15.36857057127587
UVSQ-SAT                
1 47438U 21006AB  23124.88640401  .00014809  00000+0  62983-3 0  9990
2 47438  97.3886 182.6486 0009235 225.1207 134.9280 15.23080900126051
DIY-1 (ARDUIQUBE)       
1 47963U 21022AH  23124.72331051  .00136433  00000+0  26919-2 0  9998
2 47963  97.5022  31.3556 0013987  97.9723 262.3114 15.46569696115849
XW-3 (CAS-9)            
1 50466U 21131B   23124.98671638  .00000705  00000+0  24335-3 0  9990
2 50466  98.5515 206.6675 0003047 265.0136  95.0703 14.38861715 71146
TEVEL-3                 
1 50988U 22002E   23124.95021120  .00018777  00000+0  78877-3 0  9997
2 50988  97.4367 192.2557 0008034  38.4284 134.8261 15.23458406 72173
TEVEL-8                 
1 50989U 22002F   23124.75996039  .00018818  00000+0  79205-3 0  9998
2 50989  97.4379 192.1217 0008301  37.6021  80.2454 15.23389080 72142
TEVEL-5                 
1 50998U 22002Q   23124.96555124  .00019526  00000+0  80156-3 0  9991
2 50998  97.4360 192.6066 0009182  30.9875  47.1188 15.24219665 72205
TEVEL-6                 
1 50999U 22002R   23124.96409516  .00019458  00000+0  79876-3 0  9996
2 50999  97.4357 192.6005 0009052  31.5320  46.6830 15.24221748 72206
TEVEL-1                 
1 51013U 22002AF  23124.95870986  .00018751  00000+0  78870-3 0  9994
2 51013  97.4369 192.2135 0007945  38.3150 134.6721 15.23416531 72170
TEVEL-7                 
1 51062U 22002CG  23125.01804819  .00018802  00000+0  79091-3 0  9991
2 51062  97.4376 192.3518 0008217  35.5947  48.8313 15.23411686 72184
TEVEL-4                 
1 51063U 22002CH  23125.02260880  .00018740  00000+0  78937-3 0  9996
2 51063  97.4379 192.3441 0008102  36.4865  47.1114 15.23367396 72184
TEVEL-2                 
1 51069U 22002CP  23125.00036615  .00018770  00000+0  78847-3 0  9990
2 51069  97.4365 192.2795 0007962  37.5580  40.4486 15.23460187 72185
GREENCUBE               
1 53106U 22080B   23121.98189554 -.00000003  00000+0  00000+0 0  9997
2 53106  70.1683 335.7822 0008237 195.3909 164.6501  6.42557335 18785
RS29S (SXC3-2110 CYCLO*)
1 53373U 22096D   23124.81428250  .00029897  00000+0  84326-3 0  9992
2 53373  97.4177  30.6879 0002393  78.2294   6.6271 15.36355299 41027
RS32S (SXC3-212 MONITO*)
1 53374U 22096E   23124.81909101  .00027206  00000+0  78405-3 0  9995
2 53374  97.4165  30.6337 0001740  71.5791 330.2037 15.35701509 41021
RS34S (SXC3-218 KUZBAS*)
1 53375U 22096F   23124.98051628  .00022889  00000+0  69362-3 0  9990
2 53375  97.4178  30.5897 0001708  79.8069 291.3181 15.34152071 41030
RS23S (SXC3-21 UTMN)    
1 53376U 22096G   23125.01718459  .00023476  00000+0  70065-3 0  9993
2 53376  97.4180  30.6882 0001813  74.5541 296.6886 15.34628211 41048
RS28S (SXC3-214 MIET-A*)
1 53377U 22096H   23124.79932095  .00021849  00000+0  66655-3 0  9994
2 53377  97.4179  30.4109 0001612  79.0813   8.8049 15.33948139 41009
RS26S (KAI-1)           
1 53378U 22096J   23124.80051638  .00017718  00000+0  56256-3 0  9998
2 53378  97.4193  30.2638 0001308  80.7411   6.7188 15.32717684 40992
RS19S (SXC3-219 ISOI)   
1 53381U 22096M   23124.76863406  .00021240  00000+0  63318-3 0  9993
2 53381  97.4175  30.5888 0002817 172.0933 273.9684 15.34684732 41018
RS21S (CUBESX-HSE-2)    
1 53383U 22096P   23124.81723190  .00022810  00000+0  67344-3 0  9993
2 53383  97.4180  30.6864 0003083 175.2432 270.7229 15.34974285 41022
RS30S (SXC3-217 SIREN)  
1 53384U 22096Q   23124.99264715  .00018551  00000+0  56901-3 0  9990
2 53384  97.4191  30.7339 0003182 175.8175 195.0947 15.33807899 41046
RS20S (GEOSCAN-EDELVEIS)
1 53385U 22096R   23124.81481609  .00030476  00000+0  82038-3 0  9995
2 53385  97.4173  31.1112 0003483 168.9892 231.7298 15.37801013 41081
RS33S (SXC3-215 VIZARD) 
1 53386U 22096S   23124.82153439  .00039976  00000+0  97842-3 0  9997
2 53386  97.4173  31.5566 0004183 168.5937 232.0080 15.40660744 41107
CAS-5A (FO-118)         
1 54684U 22167C   23124.98923171  .00012943  00000+0  73348-3 0  9993
2 54684  97.5552 262.9110 0015023 123.3710 332.3572 15.13032804 22142
